OBJECT_NAME,OBJECT_ID,EPOCH,MEAN_MOTION,ECCENTRICITY,INCLINATION,RA_OF_ASC_NODE,ARG_OF_PERICENTER,MEAN_ANOMALY,EPHEMERIS_TYPE,CLASSIFICATION_TYPE,NORAD_CAT_ID,ELEMENT_SET_NO,REV_AT_EPOCH,BSTAR,MEAN_MOTION_DOT,MEAN_MOTION_DDOT
JILIN-1 GAOFEN 3A,2019-032C,2026-06-13T15:08:05.718336,15.32559731,.00065454,44.9762,16.5096,278.3232,81.6910,0,U,44312,999,38729,.34669428E-3,.10824E-3,0
WT 1B,2019-032G,2026-06-13T14:26:37.922784,15.27122503,.00096451,44.9727,80.5076,230.7745,129.2282,0,U,44316,999,38653,.45002899E-3,.11933E-3,0
PROX-1,2019-036A,2026-06-13T05:47:42.122400,14.90523794,.0005471,23.9923,140.6090,351.0248,9.0153,0,U,44339,999,37288,.13448E-2,.13759E-3,0
FORMOSAT 7-3,2019-036E,2026-06-13T11:35:14.204256,15.09778691,.00005134,23.9977,204.0393,189.6992,170.3502,0,U,44343,999,38268,.22384698E-3,.4057E-4,0
FORMOSAT 7-1,2019-036L,2026-06-13T09:06:41.833440,14.96489732,.0000965,23.9981,58.0614,122.2870,237.7725,0,U,44349,999,38408,.19877001E-3,.2616E-4,0
FORMOSAT 7-6,2019-036Q,2026-06-13T05:22:51.877056,14.96495336,.0001379,23.9995,356.3470,57.8008,302.2626,0,U,44353,999,38122,.21261E-3,.2777E-4,0
FORMOSAT 7-5,2019-036V,2026-06-13T01:38:06.380160,14.96502284,.00006777,23.9989,296.1523,99.8409,260.2168,0,U,44358,999,38173,.21546947E-3,.2811E-4,0
METEOR-M2 2,2019-038A,2026-06-13T14:12:17.714880,14.24365025,.00021815,98.9137,151.8238,52.5891,307.5485,0,U,44387,999,36078,.67752699E-4,.111E-5,0
GLOBAL-4,2019-054E,2026-06-13T08:58:24.991968,15.64066405,.00063583,45.0056,258.3990,314.0744,45.9630,0,U,44499,999,37976,.48343068E-3,.46816E-3,0
ZY-1 02D,2019-059A,2026-06-13T15:41:29.175360,14.35459214,.00023742,98.3195,226.2635,111.6680,248.4760,0,U,44528,999,35383,.11806924E-3,.297E-5,0
TAURUS-1 (JINNIUZUO 1),2019-059C,2026-06-13T15:22:00.759648,14.72062545,.00076004,98.6403,329.2486,329.0449,31.0307,0,U,44530,999,35812,.83388033E-3,.519E-4,0
ZHUHAI-1 03B,2019-060C,2026-06-13T15:24:08.769888,15.53906155,.00076602,97.5516,322.2163,332.4181,27.6664,0,U,44536,999,37577,.4431608E-3,.28542E-3,0
ZHUHAI-1 03D,2019-060E,2026-06-13T16:08:03.784992,15.49566199,.00067199,97.5381,314.4005,315.4007,44.6702,0,U,44538,999,37553,.53109321E-3,.29307E-3,0
GAOFEN-7,2019-072A,2026-06-13T15:32:26.300832,15.21577126,.00176778,97.2435,226.2476,52.5042,307.7798,0,U,44703,999,36710,.20042917E-3,.4471E-4,0
NINGXIA-1 5,2019-076E,2026-06-13T13:27:37.236096,14.02084921,.00099066,45.0040,195.4004,134.6544,225.5099,0,U,44783,999,33726,-.51269085E-4,-.209E-5,0
KL-ALPHA A,2019-077A,2026-06-13T15:39:08.800416,13.56042793,.00131251,88.9259,222.9511,114.5835,245.6688,0,U,44785,999,32525,.10066738E-3,.83E-6,0
CARTOSAT-3,2019-081A,2026-06-13T14:25:02.330688,15.19257522,.00128072,97.4313,226.5252,160.0109,200.1630,0,U,44804,999,36292,.16771551E-3,.3474E-4,0
JILIN-1 GAOFEN 2B,2019-086A,2026-06-13T14:15:15.864768,15.20675244,.00131619,97.4888,236.6070,337.8789,22.1876,0,U,44836,999,35994,.28091494E-3,.6114E-4,0
ETRSS-1,2019-093B,2026-06-13T14:49:26.762304,14.95850548,.00124862,97.7828,248.9398,68.0876,292.1671,0,U,44880,999,35152,.33726979E-3,.3716E-4,0
TIANYAN 01,2019-093C,2026-06-13T14:40:59.838816,14.86512864,.00150128,97.7535,236.9309,97.6360,262.6561,0,U,44881,999,35088,.90096082E-4,.745E-5,0
