{"fetched_at":"2026-06-14T08:17:21Z","count":15259,"tles":[{"name":"FORMOSAT 7-3","line1":"1 44343U 19036E   26164.48280329  .00004057  00000+0  22385-3 0  9990","line2":"2 44343  23.9977 204.0393 0000513 189.6992 170.3502 15.09778691382689","category":"Other"},{"name":"ZHUHAI-1 03B","line1":"1 44536U 19060C   26164.64176817  .00028542  00000+0  44316-3 0  9998","line2":"2 44536  97.5516 322.2163 0007660 332.4181  27.6664 15.53906155375777","category":"Other"},{"name":"FORMOSAT 7-6","line1":"1 44353U 19036Q   26164.22421154  .00002777  00000+0  21261-3 0  9995","line2":"2 44353  23.9995 356.3470 0001379  57.8008 302.2626 14.96495336381221","category":"Other"},{"name":"ETRSS-1","line1":"1 44880U 19093B   26164.61767086  .00003716  00000+0  33727-3 0  9997","line2":"2 44880  97.7828 248.9398 0012486  68.0876 292.1671 14.95850548351529","category":"Other"},{"name":"GLOBAL-4","line1":"1 44499U 19054E   26164.37390037  .00046816  00000+0  48343-3 0  9999","line2":"2 44499  45.0056 258.3990 0006358 314.0744  45.9630 15.64066405379769","category":"Other"},{"name":"ZY-1 02D","line1":"1 44528U 19059A   26164.65380990  .00000297  00000+0  11807-3 0  9993","line2":"2 44528  98.3195 226.2635 0002374 111.6680 248.4760 14.35459214353836","category":"Other"},{"name":"METEOR-M2 2","line1":"1 44387U 19038A   26164.59187170  .00000111  00000+0  67753-4 0  9998","line2":"2 44387  98.9137 151.8238 0002181  52.5891 307.5485 14.24365025360783","category":"Weather"},{"name":"CARTOSAT-3","line1":"1 44804U 19081A   26164.60072142  .00003474  00000+0  16772-3 0  9993","line2":"2 44804  97.4313 226.5252 0012807 160.0109 200.1630 15.19257522362921","category":"Other"},{"name":"FORMOSAT 7-1","line1":"1 44349U 19036L   26164.37965085  .00002616  00000+0  19877-3 0  9994","line2":"2 44349  23.9981  58.0614 0000965 122.2870 237.7725 14.96489732384083","category":"Other"},{"name":"ZHUHAI-1 03D","line1":"1 44538U 19060E   26164.67226603  .00029307  00000+0  53109-3 0  9992","line2":"2 44538  97.5381 314.4005 0006719 315.4007  44.6702 15.49566199375530","category":"Other"},{"name":"JILIN-1 GAOFEN 3A","line1":"1 44312U 19032C   26164.63062174  .00010824  00000+0  34669-3 0  9992","line2":"2 44312  44.9762  16.5096 0006545 278.3232  81.6910 15.32559731387297","category":"Other"},{"name":"GAOFEN-7","line1":"1 44703U 19072A   26164.64752663  .00004471  00000+0  20043-3 0  9992","line2":"2 44703  97.2435 226.2476 0017677  52.5042 307.7798 15.21577126367100","category":"Other"},{"name":"PROX-1","line1":"1 44339U 19036A   26164.24145975  .00013759  00000+0  13448-2 0  9994","line2":"2 44339  23.9923 140.6090 0005471 351.0248   9.0153 14.90523794372883","category":"Other"},{"name":"TAURUS-1 (JINNIUZUO 1)","line1":"1 44530U 19059C   26164.64028657  .00005190  00000+0  83388-3 0  9994","line2":"2 44530  98.6403 329.2486 0007600 329.0449  31.0307 14.72062545358125","category":"Other"},{"name":"FORMOSAT 7-5","line1":"1 44358U 19036V   26164.06812940  .00002811  00000+0  21547-3 0  9995","line2":"2 44358  23.9989 296.1523 0000677  99.8409 260.2168 14.96502284381731","category":"Other"},{"name":"TIANYAN 01","line1":"1 44881U 19093C   26164.61180369  .00000745  00000+0  90096-4 0  9993","line2":"2 44881  97.7535 236.9309 0015012  97.6360 262.6561 14.86512864350882","category":"Other"},{"name":"WT 1B","line1":"1 44316U 19032G   26164.60182781  .00011933  00000+0  45003-3 0  9996","line2":"2 44316  44.9727  80.5076 0009645 230.7745 129.2282 15.27122503386530","category":"Other"},{"name":"NINGXIA-1 5","line1":"1 44783U 19076E   26164.56084764 -.00000209  00000+0 -51269-4 0  9997","line2":"2 44783  45.0040 195.4004 0009906 134.6544 225.5099 14.02084921337269","category":"Other"},{"name":"JILIN-1 GAOFEN 2B","line1":"1 44836U 19086A   26164.59393362  .00006114  00000+0  28091-3 0  9992","line2":"2 44836  97.4888 236.6070 0013161 337.8789  22.1876 15.20675244359944","category":"Other"},{"name":"KL-ALPHA A","line1":"1 44785U 19077A   26164.65218519  .00000083  00000+0  10067-3 0  9995","line2":"2 44785  88.9259 222.9511 0013125 114.5835 245.6688 13.56042793325258","category":"Other"}]}